{
  "type": "FeatureCollection",
  "features": [
    {
      "type": "Feature",
      "properties": {
        "norad_id": 34350,
        "name": "IRIDIUM 33 DEB",
        "group": "iridium-33-debris",
        "lat": 86.22664895209407,
        "lon": 80.71380845258739,
        "alt_km": 723.7189996733978,
        "timestamp": "2025-12-10T07:43:55.164355+00:00",
        "meta_object_name": "IRIDIUM 33 DEB",
        "meta_object_id": "1997-051ES",
        "meta_epoch": "2025-12-09T20:14:46.180320",
        "meta_mean_motion": 14.45377644,
        "meta_eccentricity": 0.0022559,
        "meta_inclination": 86.3276,
        "meta_ra_of_asc_node": 4.0641,
        "meta_arg_of_pericenter": 144.1954,
        "meta_mean_anomaly": 336.5397,
        "meta_ephemeris_type": 0,
        "meta_classification_type": "U",
        "meta_norad_cat_id": 34350,
        "meta_element_set_no": 999,
        "meta_rev_at_epoch": 88251,
        "meta_bstar": 0.00052891,
        "meta_mean_motion_dot": 1.884e-05,
        "meta_mean_motion_ddot": 0,
        "tle_line1": "1 34350U 97051ES  25343.84359005  .00001884  00000+0  52891-3 0  9996",
        "tle_line2": "2 34350  86.3276   4.0641 0022559 144.1954 336.5397 14.45377644882510"
      },
      "geometry": {
        "type": "Point",
        "coordinates": [
          80.71380845258739,
          86.22664895209407
        ]
      }
    },
    {
      "type": "Feature",
      "properties": {
        "norad_id": 34366,
        "name": "IRIDIUM 33 DEB",
        "group": "iridium-33-debris",
        "lat": -18.08804602144331,
        "lon": 49.17621060747108,
        "alt_km": 732.8880609053094,
        "timestamp": "2025-12-10T07:43:55.164366+00:00",
        "meta_object_name": "IRIDIUM 33 DEB",
        "meta_object_id": "1997-051FJ",
        "meta_epoch": "2025-12-09T15:59:46.412160",
        "meta_mean_motion": 14.54015219,
        "meta_eccentricity": 0.0022251,
        "meta_inclination": 86.3691,
        "meta_ra_of_asc_node": 50.6497,
        "meta_arg_of_pericenter": 149.3626,
        "meta_mean_anomaly": 2.8862,
        "meta_ephemeris_type": 0,
        "meta_classification_type": "U",
        "meta_norad_cat_id": 34366,
        "meta_element_set_no": 999,
        "meta_rev_at_epoch": 88137,
        "meta_bstar": 0.0017418,
        "meta_mean_motion_dot": 7.389e-05,
        "meta_mean_motion_ddot": 0,
        "tle_line1": "1 34366U 97051FJ  25343.66650940  .00007389  00000+0  17418-2 0  9996",
        "tle_line2": "2 34366  86.3691  50.6497 0022251 149.3626   2.8862 14.54015219881376"
      },
      "geometry": {
        "type": "Point",
        "coordinates": [
          49.17621060747108,
          -18.08804602144331
        ]
      }
    },
    {
      "type": "Feature",
      "properties": {
        "norad_id": 34375,
        "name": "IRIDIUM 33 DEB",
        "group": "iridium-33-debris",
        "lat": -31.71778384642187,
        "lon": 5.881687256155649,
        "alt_km": 821.3208204202838,
        "timestamp": "2025-12-10T07:43:55.164377+00:00",
        "meta_object_name": "IRIDIUM 33 DEB",
        "meta_object_id": "1997-051FT",
        "meta_epoch": "2025-12-09T12:12:31.902912",
        "meta_mean_motion": 14.17984003,
        "meta_eccentricity": 0.01030688,
        "meta_inclination": 86.4325,
        "meta_ra_of_asc_node": 183.9999,
        "meta_arg_of_pericenter": 136.8871,
        "meta_mean_anomaly": 243.7031,
        "meta_ephemeris_type": 0,
        "meta_classification_type": "U",
        "meta_norad_cat_id": 34375,
        "meta_element_set_no": 999,
        "meta_rev_at_epoch": 86666,
        "meta_bstar": 0.00067002905,
        "meta_mean_motion_dot": 1.464e-05,
        "meta_mean_motion_ddot": 0,
        "tle_line1": "1 34375U 97051FT  25343.50870258  .00001464  00000+0  67003-3 0  9999",
        "tle_line2": "2 34375  86.4325 183.9999 0103068 136.8871 243.7031 14.17984003866661"
      },
      "geometry": {
        "type": "Point",
        "coordinates": [
          5.881687256155649,
          -31.71778384642187
        ]
      }
    },
    {
      "type": "Feature",
      "properties": {
        "norad_id": 34376,
        "name": "IRIDIUM 33 DEB",
        "group": "iridium-33-debris",
        "lat": -15.888488818215666,
        "lon": -171.31773327476944,
        "alt_km": 672.2659232533251,
        "timestamp": "2025-12-10T07:43:55.164387+00:00",
        "meta_object_name": "IRIDIUM 33 DEB",
        "meta_object_id": "1997-051FU",
        "meta_epoch": "2025-12-09T19:20:43.537344",
        "meta_mean_motion": 14.62499755,
        "meta_eccentricity": 0.0026858,
        "meta_inclination": 86.2987,
        "meta_ra_of_asc_node": 7.8584,
        "meta_arg_of_pericenter": 176.5212,
        "meta_mean_anomaly": 183.6192,
        "meta_ephemeris_type": 0,
        "meta_classification_type": "U",
        "meta_norad_cat_id": 34376,
        "meta_element_set_no": 999,
        "meta_rev_at_epoch": 87964,
        "meta_bstar": 0.0022339,
        "meta_mean_motion_dot": 0.0001141,
        "meta_mean_motion_ddot": 0,
        "tle_line1": "1 34376U 97051FU  25343.80605946  .00011410  00000+0  22339-2 0  9997",
        "tle_line2": "2 34376  86.2987   7.8584 0026858 176.5212 183.6192 14.62499755879646"
      },
      "geometry": {
        "type": "Point",
        "coordinates": [
          -171.31773327476944,
          -15.888488818215666
        ]
      }
    },
    {
      "type": "Feature",
      "properties": {
        "norad_id": 34486,
        "name": "IRIDIUM 33 DEB",
        "group": "iridium-33-debris",
        "lat": 55.76061428101808,
        "lon": -172.17657770367333,
        "alt_km": 565.936374266611,
        "timestamp": "2025-12-10T07:43:55.164398+00:00",
        "meta_object_name": "IRIDIUM 33 DEB",
        "meta_object_id": "1997-051GB",
        "meta_epoch": "2025-12-09T20:29:16.279296",
        "meta_mean_motion": 14.95582817,
        "meta_eccentricity": 0.0013426,
        "meta_inclination": 86.3936,
        "meta_ra_of_asc_node": 13.3566,
        "meta_arg_of_pericenter": 121.8736,
        "meta_mean_anomaly": 1.3041,
        "meta_ephemeris_type": 0,
        "meta_classification_type": "U",
        "meta_norad_cat_id": 34486,
        "meta_element_set_no": 999,
        "meta_rev_at_epoch": 88943,
        "meta_bstar": 0.0030189,
        "meta_mean_motion_dot": 0.00033694,
        "meta_mean_motion_ddot": 0,
        "tle_line1": "1 34486U 97051GB  25343.85366064  .00033694  00000+0  30189-2 0  9999",
        "tle_line2": "2 34486  86.3936  13.3566 0013426 121.8736   1.3041 14.95582817889431"
      },
      "geometry": {
        "type": "Point",
        "coordinates": [
          -172.17657770367333,
          55.76061428101808
        ]
      }
    },
    {
      "type": "Feature",
      "properties": {
        "norad_id": 34487,
        "name": "IRIDIUM 33 DEB",
        "group": "iridium-33-debris",
        "lat": -55.86546151896731,
        "lon": -161.16949169242892,
        "alt_km": 759.0411073449932,
        "timestamp": "2025-12-10T07:43:55.164408+00:00",
        "meta_object_name": "IRIDIUM 33 DEB",
        "meta_object_id": "1997-051GC",
        "meta_epoch": "2025-12-09T13:02:34.225152",
        "meta_mean_motion": 14.43210481,
        "meta_eccentricity": 0.0032512,
        "meta_inclination": 86.3437,
        "meta_ra_of_asc_node": 13.7534,
        "meta_arg_of_pericenter": 138.4387,
        "meta_mean_anomaly": 13.878,
        "meta_ephemeris_type": 0,
        "meta_classification_type": "U",
        "meta_norad_cat_id": 34487,
        "meta_element_set_no": 999,
        "meta_rev_at_epoch": 88202,
        "meta_bstar": 0.00032204,
        "meta_mean_motion_dot": 1.109e-05,
        "meta_mean_motion_ddot": 0,
        "tle_line1": "1 34487U 97051GC  25343.54345168  .00001109  00000+0  32204-3 0  9995",
        "tle_line2": "2 34487  86.3437  13.7534 0032512 138.4387  13.8780 14.43210481882024"
      },
      "geometry": {
        "type": "Point",
        "coordinates": [
          -161.16949169242892,
          -55.86546151896731
        ]
      }
    },
    {
      "type": "Feature",
      "properties": {
        "norad_id": 34488,
        "name": "IRIDIUM 33 DEB",
        "group": "iridium-33-debris",
        "lat": 1.2911017188863185,
        "lon": 126.92665427875917,
        "alt_km": 488.95665634886245,
        "timestamp": "2025-12-10T07:43:55.164419+00:00",
        "meta_object_name": "IRIDIUM 33 DEB",
        "meta_object_id": "1997-051GD",
        "meta_epoch": "2025-12-09T15:14:24.291168",
        "meta_mean_motion": 15.28228201,
        "meta_eccentricity": 0.0014113,
        "meta_inclination": 86.3246,
        "meta_ra_of_asc_node": 307.3494,
        "meta_arg_of_pericenter": 56.5071,
        "meta_mean_anomaly": 303.7522,
        "meta_ephemeris_type": 0,
        "meta_classification_type": "U",
        "meta_norad_cat_id": 34488,
        "meta_element_set_no": 999,
        "meta_rev_at_epoch": 89192,
        "meta_bstar": 0.0059279,
        "meta_mean_motion_dot": 0.00166796,
        "meta_mean_motion_ddot": 0,
        "tle_line1": "1 34488U 97051GD  25343.63500337  .00166796  00000+0  59279-2 0  9991",
        "tle_line2": "2 34488  86.3246 307.3494 0014113  56.5071 303.7522 15.28228201891924"
      },
      "geometry": {
        "type": "Point",
        "coordinates": [
          126.92665427875917,
          1.2911017188863185
        ]
      }
    }
  ]
}